{
  "type": "FeatureCollection",
  "features": [
    {
      "type": "Feature",
      "properties": {
        "norad_id": 37836,
        "name": "EUTELSAT 16A",
        "group": "eutelsat",
        "lat": 0.08392441903373175,
        "lon": 85.26025519484328,
        "alt_km": 35811.672538375526,
        "timestamp": "2025-12-19T22:41:52.050740+00:00",
        "meta_object_name": "EUTELSAT 16A",
        "meta_object_id": "2011-057A",
        "meta_epoch": "2025-12-19T18:28:29.474112",
        "meta_mean_motion": 1.00269089,
        "meta_eccentricity": 0.0005882,
        "meta_inclination": 0.0605,
        "meta_ra_of_asc_node": 336.2541,
        "meta_arg_of_pericenter": 293.431,
        "meta_mean_anomaly": 112.0647,
        "meta_ephemeris_type": 0,
        "meta_classification_type": "U",
        "meta_norad_cat_id": 37836,
        "meta_element_set_no": 999,
        "meta_rev_at_epoch": 552,
        "meta_bstar": 0,
        "meta_mean_motion_dot": 1.28e-06,
        "meta_mean_motion_ddot": 0,
        "tle_line1": "1 37836U 11057A   25353.76978558  .00000128  00000+0  00000+0 0  9993",
        "tle_line2": "2 37836   0.0605 336.2541 0005882 293.4310 112.0647  1.00269089  5527"
      },
      "geometry": {
        "type": "Point",
        "coordinates": [
          85.26025519484328,
          0.08392441903373175
        ]
      }
    },
    {
      "type": "Feature",
      "properties": {
        "norad_id": 38992,
        "name": "EUTELSAT 21B",
        "group": "eutelsat",
        "lat": 0.09078150275873952,
        "lon": 90.85264736097554,
        "alt_km": 35800.693007885566,
        "timestamp": "2025-12-19T22:41:52.050752+00:00",
        "meta_object_name": "EUTELSAT 21B",
        "meta_object_id": "2012-062B",
        "meta_epoch": "2025-12-19T13:22:01.972128",
        "meta_mean_motion": 1.0026865,
        "meta_eccentricity": 0.0003254,
        "meta_inclination": 0.0699,
        "meta_ra_of_asc_node": 337.9686,
        "meta_arg_of_pericenter": 294.4123,
        "meta_mean_anomaly": 38.1437,
        "meta_ephemeris_type": 0,
        "meta_classification_type": "U",
        "meta_norad_cat_id": 38992,
        "meta_element_set_no": 999,
        "meta_rev_at_epoch": 4802,
        "meta_bstar": 0,
        "meta_mean_motion_dot": 1.54e-06,
        "meta_mean_motion_ddot": 0,
        "tle_line1": "1 38992U 12062B   25353.55696727  .00000154  00000+0  00000+0 0  9995",
        "tle_line2": "2 38992   0.0699 337.9686 0003254 294.4123  38.1437  1.00268650 48026"
      },
      "geometry": {
        "type": "Point",
        "coordinates": [
          90.85264736097554,
          0.09078150275873952
        ]
      }
    },
    {
      "type": "Feature",
      "properties": {
        "norad_id": 39020,
        "name": "EUTELSAT 70B",
        "group": "eutelsat",
        "lat": 0.05769951835130205,
        "lon": 139.6891261999924,
        "alt_km": 35793.4308839162,
        "timestamp": "2025-12-19T22:41:52.050764+00:00",
        "meta_object_name": "EUTELSAT 70B",
        "meta_object_id": "2012-069A",
        "meta_epoch": "2025-12-19T15:18:43.296768",
        "meta_mean_motion": 1.00271378,
        "meta_eccentricity": 0.0004285,
        "meta_inclination": 0.061,
        "meta_ra_of_asc_node": 2.6778,
        "meta_arg_of_pericenter": 250.411,
        "meta_mean_anomaly": 135.5664,
        "meta_ephemeris_type": 0,
        "meta_classification_type": "U",
        "meta_norad_cat_id": 39020,
        "meta_element_set_no": 999,
        "meta_rev_at_epoch": 4770,
        "meta_bstar": 0,
        "meta_mean_motion_dot": -1.9e-07,
        "meta_mean_motion_ddot": 0,
        "tle_line1": "1 39020U 12069A   25353.63800112 -.00000019  00000+0  00000+0 0  9990",
        "tle_line2": "2 39020   0.0610   2.6778 0004285 250.4110 135.5664  1.00271378 47702"
      },
      "geometry": {
        "type": "Point",
        "coordinates": [
          139.6891261999924,
          0.05769951835130205
        ]
      }
    },
    {
      "type": "Feature",
      "properties": {
        "norad_id": 39122,
        "name": "EUTELSAT 117 WEST A",
        "group": "eutelsat",
        "lat": -0.0053344366678328035,
        "lon": -47.52164998663393,
        "alt_km": 35775.93727889334,
        "timestamp": "2025-12-19T22:41:52.050797+00:00",
        "meta_object_name": "EUTELSAT 117 WEST A",
        "meta_object_id": "2013-012A",
        "meta_epoch": "2025-12-19T12:21:38.812320",
        "meta_mean_motion": 1.00274631,
        "meta_eccentricity": 0.0002807,
        "meta_inclination": 0.032,
        "meta_ra_of_asc_node": 299.7491,
        "meta_arg_of_pericenter": 334.4616,
        "meta_mean_anomaly": 242.7738,
        "meta_ephemeris_type": 0,
        "meta_classification_type": "U",
        "meta_norad_cat_id": 39122,
        "meta_element_set_no": 999,
        "meta_rev_at_epoch": 4663,
        "meta_bstar": 0,
        "meta_mean_motion_dot": 1.1e-07,
        "meta_mean_motion_ddot": 0,
        "tle_line1": "1 39122U 13012A   25353.51503255  .00000011  00000+0  00000+0 0  9998",
        "tle_line2": "2 39122   0.0320 299.7491 0002807 334.4616 242.7738  1.00274631 46635"
      },
      "geometry": {
        "type": "Point",
        "coordinates": [
          -47.52164998663393,
          -0.0053344366678328035
        ]
      }
    },
    {
      "type": "Feature",
      "properties": {
        "norad_id": 39163,
        "name": "EUTELSAT 7B",
        "group": "eutelsat",
        "lat": 0.0914874200250009,
        "lon": 76.28658204369371,
        "alt_km": 35793.99542046515,
        "timestamp": "2025-12-19T22:41:52.050828+00:00",
        "meta_object_name": "EUTELSAT 7B",
        "meta_object_id": "2013-022A",
        "meta_epoch": "2025-12-19T06:26:58.431840",
        "meta_mean_motion": 1.00270274,
        "meta_eccentricity": 0.0004283,
        "meta_inclination": 0.0652,
        "meta_ra_of_asc_node": 356.9078,
        "meta_arg_of_pericenter": 324.8571,
        "meta_mean_anomaly": 230.1004,
        "meta_ephemeris_type": 0,
        "meta_classification_type": "U",
        "meta_norad_cat_id": 39163,
        "meta_element_set_no": 999,
        "meta_rev_at_epoch": 4614,
        "meta_bstar": 0,
        "meta_mean_motion_dot": 7.3e-07,
        "meta_mean_motion_ddot": 0,
        "tle_line1": "1 39163U 13022A   25353.26873185  .00000073  00000+0  00000+0 0  9996",
        "tle_line2": "2 39163   0.0652 356.9078 0004283 324.8571 230.1004  1.00270274 46140"
      },
      "geometry": {
        "type": "Point",
        "coordinates": [
          76.28658204369371,
          0.0914874200250009
        ]
      }
    },
    {
      "type": "Feature",
      "properties": {
        "norad_id": 39612,
        "name": "EXPRESS-AT1",
        "group": "eutelsat",
        "lat": 0.04023287258129112,
        "lon": 125.2301335819091,
        "alt_km": 35784.62246049984,
        "timestamp": "2025-12-19T22:41:52.050846+00:00",
        "meta_object_name": "EXPRESS-AT1",
        "meta_object_id": "2014-010A",
        "meta_epoch": "2025-12-19T13:31:46.041312",
        "meta_mean_motion": 1.00270605,
        "meta_eccentricity": 4.94e-05,
        "meta_inclination": 0.022,
        "meta_ra_of_asc_node": 3.3546,
        "meta_arg_of_pericenter": 88.7338,
        "meta_mean_anomaly": 255.2488,
        "meta_ephemeris_type": 0,
        "meta_classification_type": "U",
        "meta_norad_cat_id": 39612,
        "meta_element_set_no": 999,
        "meta_rev_at_epoch": 4301,
        "meta_bstar": 0,
        "meta_mean_motion_dot": 0,
        "meta_mean_motion_ddot": 0,
        "tle_line1": "1 39612U 14010A   25353.56372733  .00000000  00000+0  00000+0 0  9999",
        "tle_line2": "2 39612   0.0220   3.3546 0000494  88.7338 255.2488  1.00270605 43015"
      },
      "geometry": {
        "type": "Point",
        "coordinates": [
          125.2301335819091,
          0.04023287258129112
        ]
      }
    },
    {
      "type": "Feature",
      "properties": {
        "norad_id": 39613,
        "name": "EXPRESS-AT2",
        "group": "eutelsat",
        "lat": -0.03236600598634085,
        "lon": -150.9117125629623,
        "alt_km": 35785.42822195608,
        "timestamp": "2025-12-19T22:41:52.050859+00:00",
        "meta_object_name": "EXPRESS-AT2",
        "meta_object_id": "2014-010B",
        "meta_epoch": "2025-12-19T15:17:38.440608",
        "meta_mean_motion": 1.00271653,
        "meta_eccentricity": 0.0001024,
        "meta_inclination": 0.0167,
        "meta_ra_of_asc_node": 316.7703,
        "meta_arg_of_pericenter": 332.8216,
        "meta_mean_anomaly": 168.1578,
        "meta_ephemeris_type": 0,
        "meta_classification_type": "U",
        "meta_norad_cat_id": 39613,
        "meta_element_set_no": 999,
        "meta_rev_at_epoch": 4270,
        "meta_bstar": 0,
        "meta_mean_motion_dot": -2.57e-06,
        "meta_mean_motion_ddot": 0,
        "tle_line1": "1 39613U 14010B   25353.63725047 -.00000257  00000+0  00000+0 0  9993",
        "tle_line2": "2 39613   0.0167 316.7703 0001024 332.8216 168.1578  1.00271653 42701"
      },
      "geometry": {
        "type": "Point",
        "coordinates": [
          -150.9117125629623,
          -0.03236600598634085
        ]
      }
    }
  ]
}